FLOCK 1C-3              
1 40041U 14033AH  17165.41659797  .00000434  00000-0  52564-4 0  9995
2 40041  97.9258  77.9019 0012385 306.2800  53.7239 14.88633827162077
POLYITAN-1              
1 40042U 14033AJ  17165.29452129  .00000355  00000-0  44681-4 0  9995
2 40042  97.9205  76.3768 0013667 307.0611  52.9354 14.88050133161483
TIGRISAT                
1 40043U 14033AK  17165.59590967  .00000152  00000-0  30377-4 0  9994
2 40043  97.8578  50.2469 0059054 303.5205  56.0371 14.73976924160151
LEMUR-1                 
1 40044U 14033AL  17165.50888363  .00000130  00000-0  27211-4 0  9995
2 40044  97.8576  49.9090 0058212 304.9598  54.6151 14.73800558160025
AEROCUBE 6A             
1 40045U 14033AM  17165.62599009  .00000371  00000-0  61717-4 0  9991
2 40045  97.8692  51.4168 0057134 299.2200  60.3303 14.74817395160107
AEROCUBE 6B             
1 40046U 14033AN  17165.62605301  .00000363  00000-0  60550-4 0  9990
2 40046  97.8687  51.3511 0056367 298.8278  60.7279 14.74818124160107
UKUBE-1                 
1 40074U 14037F   17165.52749949  .00000290  00000-0  42345-4 0  9992
2 40074  98.3468 280.3255 0005958  67.1411 293.0426 14.83496512158785
BRITE-PL 2              
1 40119U 14049B   17165.45052912  .00000137  00000-0  22834-4 0  9995
2 40119  97.9361 251.3665 0019049  97.9957 262.3419 14.84137857152754
FIREBIRD 4              
1 40378U 15003C   17165.55918188  .00001645  00000-0  73625-4 0  9999
2 40378  99.1229 349.0291 0136710  11.4798 348.9494 15.15371648130604
GRIFEX                  
1 40379U 15003D   17165.53961315  .00001246  00000-0  60082-4 0  9998
2 40379  99.1247 346.7965 0142627  19.0355 341.6125 15.12935650130487
EXOCUBE                 
1 40380U 15003E   17165.45647240  .00000907  00000-0  46571-4 0  9999
2 40380  99.1286 345.4515 0146285  23.2202 337.5543 15.11464722130373
DEORBITSAIL             
1 40719U 15032E   17165.61348000  .00000426  00000-0  69091-4 0  9995
2 40719  97.9809  59.4037 0017079 146.8804 213.3479 14.76053401103945
TIANWANG 1C (TW-1C)     
1 40926U 15051B   17165.47671454  .00006084  00000-0  14135-3 0  9996
2 40926  97.2293 205.0582 0012308 169.4119 298.1815 15.42640715 96501
TIANWANG 1B (TW-1B)     
1 40927U 15051C   17165.48008661  .00005868  00000-0  14153-3 0  9991
2 40927  97.2384 205.0815 0011411 179.3974 288.2398 15.41538784 96456
TIANWANG 1A (TW-1A)     
1 40928U 15051D   17165.48563565  .00002856  00000-0  83390-4 0  9995
2 40928  97.2265 201.3504 0011793 199.9306 269.9796 15.36076953 96287
LEMUR-2-JOEL            
1 40932U 15052C   17165.45289211  .00000682  00000-0  51720-5 0  9999
2 40932   6.0103 247.3850 0013340 222.6194 137.2863 14.77470088 92609
LEMUR-2-CHRIS           
1 40933U 15052D   17165.38795580  .00000884  00000-0  32355-4 0  9999
2 40933   6.0020 246.7442 0014911 224.6139 135.2834 14.77614072 92603
LEMUR-2-JEROEN          
1 40934U 15052E   17164.27787321  .00000902  00000-0  36485-4 0  9990
2 40934   6.0087 259.8319 0009698 195.8599 164.1332 14.76939174 92369
LEMUR-2-PETER           
1 40935U 15052F   17164.70168093  .00000769  00000-0  18185-4 0  9996
2 40935   6.0024 258.1978 0010253 198.2430 161.7785 14.76725314 92425
EXACTVIEW 9             
1 40936U 15052G   17163.68852654  .00000714  00000-0  10878-4 0  9997
2 40936   6.0087 267.9390 0011433 165.6565 194.3363 14.76247440 92264
ATHENOXAT 1             
1 41168U 15077C   17165.38660880  .00001777  00000-0  63000-4 0  9994
2 41168  14.9839 189.8945 0012195 338.4757 224.7197 15.11566736 82615
GALASSIA                
1 41170U 15077E   17165.46869070  .00001749  00000-0  60247-4 0  9997
2 41170  14.9876 185.6769 0013517 356.3891   3.6331 15.12074579 82663
VELOX 2                 
1 41171U 15077F   17165.37417019  .00001440  00000-0  46803-4 0  9990
2 41171  14.9901 198.2864 0009154 312.7741  47.1810 15.09858478 82547
AGGIESAT 4              
1 41313U 98067HP  17165.03561631  .00022823  00000-0  16240-3 0  9990
2 41313  51.6363  18.9101 0004151 131.1313 229.0045 15.73754734 78432
BEVO 2                  
1 41314U 98067HQ  17164.58972946  .11750698  12645-4  18149-3 0  9997
2 41314  51.6052 348.7173 0009415 280.9513  79.0457 16.47784496 78591
HORYU-IV                
1 41340U 16012D   17165.26078578  .00000547  00000-0  35547-4 0  9999
2 41340  31.0044 127.5046 0014134  45.5961 314.5829 15.00594227 72572
OUFTI-1                 
1 41458U 16025C   17165.58173193  .00002030  00000-0  11290-3 0  9994
2 41458  98.1835 203.0087 0173321 298.4867  59.8992 15.03167322 62199
E-ST@R-II               
1 41459U 16025D   17165.60236742  .00000173  00000-0  14291-4 0  9999
2 41459  98.1870 202.9860 0174155 299.0132  59.3736 15.02999706 62182
AAUSAT 4                
1 41460U 16025E   17165.53480573  .00000697  00000-0  42257-4 0  9990
2 41460  98.1764 203.0131 0166536 297.4484  60.9903 15.03882818 62196
DIWATA-1                
1 41463U 98067HT  17165.53128138  .00006875  00000-0  82327-4 0  9991
2 41463  51.6421  38.7144 0001809 119.8410 311.0106 15.62248653 64383
NODES 2                 
1 41477U 98067HX  17165.61237863  .00058492  00000-0  28165-3 0  9992
2 41477  51.6283  16.6212 0002293 132.2489 227.8708 15.82045333 61660
NODES 1                 
1 41478U 98067HY  17165.46374816  .00054086  00000-0  26774-3 0  9995
2 41478  51.6318  17.9058 0002075 132.3010 227.8168 15.81480988 61636
FLOCK 2E'-1             
1 41479U 98067HZ  17165.47363945  .00016899  00000-0  14879-3 0  9991
2 41479  51.6357  30.1212 0001012 173.8556 186.2454 15.68882388 61433
FLOCK 2E'-3             
1 41480U 98067JA  17165.62558885  .00016143  00000-0  14289-3 0  9996
2 41480  51.6357  28.9062 0000463  73.4337 286.6710 15.68792208 61457
FLOCK 2E'-2             
1 41481U 98067JB  17165.19492811  .00015579  00000-0  13394-3 0  9993
2 41481  51.6342  29.7385 0001375 173.7666 186.3348 15.69539837 61395
FLOCK 2E'-4             
1 41482U 98067JC  17165.61283340  .00020000  00000-0  15654-3 0  9992
2 41482  51.6336  26.5129 0000834 104.4397 255.6694 15.71598086 61478
FLOCK 2E-1              
1 41483U 98067JD  17165.26349392  .00012395  00000-0  11512-3 0  9991
2 41483  51.6376  31.7752 0002033  53.4275 306.6908 15.67872498 61241
FLOCK 2E-2              
1 41484U 98067JE  17165.19045500  .00014905  00000-0  12932-3 0  9994
2 41484  51.6384  30.5551 0001988  69.2745 290.8465 15.69358682 61259
FLOCK 2E-3              
1 41486U 98067JG  17165.46742442  .00013966  00000-0  13263-3 0  9999
2 41486  51.6367  32.3800 0002427  87.2207 272.9067 15.67188747 61273
FLOCK 2E-4              
1 41487U 98067JH  17165.12958634  .00014799  00000-0  13557-3 0  9996
2 41487  51.6370  32.3486 0003421  82.1852 277.9533 15.68024957 61246
FLOCK 2E-6              
1 41563U 98067JM  17165.63081140  .00011680  00000-0  11458-3 0  9990
2 41563  51.6362  31.9449 0001154 173.3395 186.7616 15.66572878 59369
FLOCK 2E-5              
1 41564U 98067JN  17165.57749122  .00011490  00000-0  11323-3 0  9995
2 41564  51.6365  32.3468 0000965 170.4682 189.6332 15.66477248 59345
FLOCK 2E-7              
1 41565U 98067JP  17165.45694491  .00016340  00000-0  14060-3 0  9991
2 41565  51.6356  29.2585 0004251 108.3962 251.7498 15.69471283 59276
FLOCK 2E-8              
1 41566U 98067JQ  17165.43509121  .00119471  16757-4  30943-3 0  9992
2 41566  51.6275  10.0817 0004386 213.6835 146.3894 15.94890327 59519
FLOCK 2E'-5             
1 41567U 98067JR  17165.63334501  .00011400  00000-0  11618-3 0  9994
2 41567  51.6373  33.4836 0004622 122.3131 237.8313 15.65635409 59201
FLOCK 2E'-6             
1 41568U 98067JS  17165.61417940  .00013990  00000-0  13174-3 0  9997
2 41568  51.6362  31.0659 0004168 121.4285 238.7119 15.67394635 59267
FLOCK 2E'-8             
1 41569U 98067JT  17165.61803475  .00018137  00000-0  15392-3 0  9992
2 41569  51.6355  28.0872 0002116  88.1167 272.0072 15.69723128 59187
FLOCK 2E'-7             
1 41570U 98067JU  17165.63262777  .00023182  00000-0  17433-3 0  9994
2 41570  51.6356  25.1937 0002525  72.6721 287.4553 15.72444567 59240
FLOCK 2E-9              
1 41571U 98067JV  17165.61771454  .00030248  00000-0  24732-3 0  9991
2 41571  51.6359  27.3503 0003719 110.9091 249.2305 15.70276017 59173
FLOCK 2E-10             
1 41572U 98067JW  17165.45849212  .00015719  00000-0  13897-3 0  9998
2 41572  51.6362  30.0432 0004342 112.9084 247.2371 15.68842652 59124
FLOCK 2E-12             
1 41573U 98067JX  17165.14232974  .00019965  00000-0  16929-3 0  9992
2 41573  51.6354  30.9184 0003767 123.2200 236.9159 15.69664264 59080
FLOCK 2E-11             
1 41574U 98067JY  17165.45664922  .00017144  00000-0  14519-3 0  9999
2 41574  51.6342  28.4727 0004670 126.7052 233.4375 15.69815444 59147
FLOCK 2E'-9             
1 41575U 98067JZ  17165.45491837  .00018413  00000-0  14944-3 0  9995
2 41575  51.6338  27.6893 0004311 140.2517 219.8797 15.70787669 59142
FLOCK 2E'-10            
1 41576U 98067KA  17165.45091558  .00017365  00000-0  14743-3 0  9994
2 41576  51.6366  29.2533 0004265 139.5176 220.6139 15.69745023 59026
FLOCK 2E'-11            
1 41577U 98067KB  17165.61379641  .00017710  00000-0  15340-3 0  9993
2 41577  51.6367  28.8494 0004676 120.8018 239.3440 15.69237487 58866
FLOCK 2E'-12            
1 41578U 98067KC  17165.61644469  .00021345  00000-0  17490-3 0  9994
2 41578  51.6344  28.0482 0004850 113.3531 246.7977 15.70440239 58873
LEMUR-2-DRMUZZ          
1 41595U 16019B   17165.55798475  .00453377  11146-3  52616-3 0  9999
2 41595  51.6256   1.0287 0008205 277.8990  82.1092 16.08172706 56355
FLOCK 2P-6              
1 41606U 16040H   17165.60074667  .00003955  00000-0  17501-3 0  9993
2 41606  97.4588 228.3310 0012832  85.4521 274.8181 15.22183963 54314
FLOCK 2P-11             
1 41608U 16040K   17165.60618579  .00003177  00000-0  14129-3 0  9990
2 41608  97.4583 228.3078 0012887  85.6255 274.6453 15.22164007 54259
